IRIDIUM 63              
1 25286U 98021B   25205.65392501  .00000313  00000+0  99910-4 0  9996
2 25286  86.3943  66.4085 0002213  91.6005 268.5446 14.36566578429221
IRIDIUM 69              
1 25319U 98026A   25205.69046292  .00000420  00000+0  12470-3 0  9999
2 25319  86.3941  79.5719 0000288 212.2512 147.8670 14.40995932428467
IRIDIUM 71              
1 25320U 98026B   25206.17843402  .00000367  00000+0  10755-3 0  9997
2 25320  86.3937  74.0486 0001938  24.9730 335.1563 14.41181745429316
IRIDIUM 73              
1 25344U 98032C   25206.04097702  .00000512  00000+0  12237-3 0  9999
2 25344  86.4397  30.7311 0001818 104.8456 255.2951 14.51746112436350
IRIDIUM 82              
1 25467U 98051A   25205.69318605  .00025185  00000+0  68896-3 0  9999
2 25467  86.3648  91.2764 0083999 152.0595 208.5205 15.33635584429702
